{
  "type": "FeatureCollection",
  "name": "lunar-site-intel-registry",
  "crs": { "type": "name", "properties": { "name": "lunar-lonlat-sphere-1737400" } },
  "features": [
    {
      "type": "Feature",
      "properties": {
        "actor": "CNSA",
        "mission": "Chang'e-7",
        "kind": "lander",
        "lat": -88.8,
        "lon": 123.4,
        "buffer_m": 2000,
        "t_start": "2027-01-01",
        "t_end": "2027-12-31",
        "rf_band": null,
        "coord_source": "approximate",
        "source_url": "https://www.cnsa.gov.cn/ (CE-7 south-polar targeting; coordinates widely reported as ~88.8°S 123°E — approximate, not a surveyed pad)"
      },
      "geometry": { "type": "Point", "coordinates": [123.4, -88.8] }
    },
    {
      "type": "Feature",
      "properties": {
        "actor": "NASA",
        "mission": "Peak near Shackleton (PGDA Site07 centre)",
        "kind": "lander",
        "lat": -88.811008,
        "lon": 123.690068,
        "buffer_m": 2000,
        "t_start": "2026-01-01",
        "t_end": "2028-12-31",
        "rf_band": null,
        "coord_source": "published",
        "source_url": "https://www.nasa.gov/news-release/nasa-identifies-candidate-regions-for-landing-next-americans-on-moon/",
        "citation": "PGDA Site07 5 m LDEM centroid (product extent, not a pad). Region name: NASA (2022) Peak Near Shackleton. DEM: Barker et al. 2021, doi:10.1016/j.pss.2020.105119."
      },
      "geometry": { "type": "Point", "coordinates": [123.690068, -88.811008] }
    },
    {
      "type": "Feature",
      "properties": {
        "actor": "Blue Origin",
        "mission": "Blue Moon MK1 Endurance",
        "kind": "lander",
        "lat": -89.844444,
        "lon": -147.994617,
        "buffer_m": 2000,
        "t_start": "2027-01-01",
        "t_end": "2027-12-31",
        "rf_band": null,
        "coord_source": "placeholder",
        "source_url": "DEMO ONLY: placed on Site04 grid so buffer overlap is visible. Not a published pad."
      },
      "geometry": { "type": "Point", "coordinates": [-147.994617, -89.844444] }
    },
    {
      "type": "Feature",
      "properties": {
        "actor": "Intuitive Machines",
        "mission": "IM-4",
        "kind": "lander",
        "lat": -89.917555,
        "lon": 180.0,
        "buffer_m": 2000,
        "t_start": "2027-06-01",
        "t_end": "2027-12-31",
        "rf_band": null,
        "coord_source": "placeholder",
        "source_url": "DEMO ONLY: placed on Site04 grid so buffer overlap is visible. Not a published pad."
      },
      "geometry": { "type": "Point", "coordinates": [180.0, -89.917555] }
    },
    {
      "type": "Feature",
      "properties": {
        "actor": "ESA / ispace",
        "mission": "MAGPIE",
        "kind": "lander",
        "lat": -89.699106,
        "lon": 170.537678,
        "buffer_m": 2000,
        "t_start": "2029-01-01",
        "t_end": "2029-12-31",
        "rf_band": null,
        "coord_source": "placeholder",
        "source_url": "DEMO ONLY: placed on Site04 (Shackleton rim). Not a published MAGPIE site."
      },
      "geometry": { "type": "Point", "coordinates": [170.537678, -89.699106] }
    },
    {
      "type": "Feature",
      "properties": {
        "actor": "NASA (literature)",
        "mission": "Artemis III Peak Near Shackleton — literature Site 007",
        "kind": "lander",
        "lat": -89.01701,
        "lon": 126.27302,
        "buffer_m": 2000,
        "t_start": "2026-01-01",
        "t_end": "2028-12-31",
        "rf_band": null,
        "coord_source": "approximate",
        "source_url": "https://www.hou.usra.edu/meetings/lpsc2024/pdf/1695.pdf",
        "citation": "Gracy & Lee (2024), 55th LPSC 1695. Candidate site 89.01701°S, 126.27302°E inside NASA 2022 Peak Near Shackleton. Not an official NASA pad. Context: Kumari et al. 2022 Planet. Sci. J. 3, 224, doi:10.3847/PSJ/ac88c2."
      },
      "geometry": { "type": "Point", "coordinates": [126.27302, -89.01701] }
    }
  ]
}
